lon,lat,name,address,tel
121.442947,31.216125 , 复旦大学附属华山医院 , 乌鲁木齐中路12号
121.467369,31.232083 , 上海长征医院 , 凤阳路415号
121.517798,31.273252 , 上海交通大学医学院附属新华医院 , 控江路1665号
121.448301,31.229754 , 上海市儿童医院 , 北京西路1400弄24号
121.467595,31.211811 , 上海交通大学医学院附属瑞金医院 , 瑞金二路197号
121.453841,31.197755 , 复旦大学附属中山医院(西院区) , 枫林路180号
121.469069,31.30594 , 上海复大医院 , 场中路658号
121.471649,31.2592 , 上海市中医医院 , 芷江中路274
121.486391,31.202407 , 上海交通大学医学院附属第九人民医院南院 , 制造局路639号
121.479295,31.222759 , 上海中医药大学附属曙光医院(西院) , 普安路185号
121.422504,31.178387 , 上海市第六人民医院 , 宜山路600号
121.530055,31.310126 , 东方肝胆外科医院 , 长海路225号
121.431327,31.266763 , 同济大学附属同济医院 , 新村路389号
121.394957,31.139163 , 复旦大学附属儿科医院 , 万源路399号(近顾戴路)
121.512288,31.237604 , 上海市东方医院 , 即墨路150号
121.530881,31.191595 , 上海交通大学医学院附属第九人民医院浦东分院 , 严镇路166号(近高科西路)
121.39483,31.174778 , 上海虹桥医院 , 虹梅路2181号
121.703419,31.189456 , 上海市浦东新区人民医院 , 川环南路490号
121.528064,31.308544 , 长海医院 , 长海路168号
121.489451,31.253156 , 上海市第一人民医院 , 武进路85号
121.442947,31.216125 , 复旦大学附属华山医院 , 乌鲁木齐中路12号
121.467369,31.232083 , 上海长征医院 , 凤阳路415号
121.517798,31.273252 , 上海交通大学医学院附属新华医院 , 控江路1665号
121.448301,31.229754 , 上海市儿童医院 , 北京西路1400弄24号
121.467595,31.211811 , 上海交通大学医学院附属瑞金医院 , 瑞金二路197号
121.453841,31.197755 , 复旦大学附属中山医院(西院区) , 枫林路180号
121.469069,31.30594 , 上海复大医院 , 场中路658号
121.471649,31.2592 , 上海市中医医院 , 芷江中路274
121.486391,31.202407 , 上海交通大学医学院附属第九人民医院南院 , 制造局路639号
121.479295,31.222759 , 上海中医药大学附属曙光医院(西院) , 普安路185号
121.422504,31.178387 , 上海市第六人民医院 , 宜山路600号
121.530055,31.310126 , 东方肝胆外科医院 , 长海路225号
121.431327,31.266763 , 同济大学附属同济医院 , 新村路389号
121.394957,31.139163 , 复旦大学附属儿科医院 , 万源路399号(近顾戴路)
121.512288,31.237604 , 上海市东方医院 , 即墨路150号
121.530881,31.191595 , 上海交通大学医学院附属第九人民医院浦东分院 , 严镇路166号(近高科西路)
121.39483,31.174778 , 上海虹桥医院 , 虹梅路2181号
121.703419,31.189456 , 上海市浦东新区人民医院 , 川环南路490号
121.528064,31.308544 , 长海医院 , 长海路168号
121.489451,31.253156 , 上海市第一人民医院 , 武进路85号
121.498479,31.256327 , 长江医院(周家嘴路) , 周家嘴路515号
121.425929,31.197747 , 上海市胸科医院 , 淮海西路241
121.442156,31.169820 , 上海远大心胸医院 , 龙漕路218号
121.488811,31.234077 , 黄浦区中心医院 , 四川中路109号
121.464632,31.282548 , 上海华肤医院 , 广粤路95号
121.449831,31.230711 , 上海市静安区中心医院 , 西康路259号
121.250625,31.387545 , 嘉定区中医医院 , 博乐路222号
121.467460,30.919314 , 上海奉浦医院 , 南桥镇环城东路1148号(近新建东路)
121.453569,31.272109 , 上海市第十人民医院 , 延长中路301号
121.239455,31.387638 , 嘉定区中心医院 , 城北路1号
121.441151,31.245346 , 上海市普陀区人民医院 , 江宁路1291号
121.379456,31.177478 , 上海市闵行区中医医院 , 合川路3071号
121.436047,31.175487 , 上海仁爱医院 , 漕溪路133号
121.59392,31.186401 , 上海中医药大学附属曙光医院(东院) , 张衡路528号
121.450497,31.18799 , 上海中医药大学附属龙华医院 , 宛平南路725号
121.404159,31.241527 , 上海市普陀区中心医院 , 兰溪路164号
121.550633,31.27156 , 上海市杨浦区中心医院 , 腾越路450号
121.433283,31.167449 , 上海市第八人民医院 , 漕宝路8号
121.422597,31.20483 , 光华医院 , 新华路540号
121.458095,31.217164 , 徐汇区中心医院 , 淮海中路966
121.425285,31.278865 , 上海申江医院 , 沪太路1238号
121.220615,31.007175 , 上海市松江区中心医院(中山中路) , 中山中路748号(近华亭老街)
121.529964,31.274356 , 上海江城皮肤病医院 , 黄兴路286号
121.57818,31.342974 , 上海市第七人民医院 , 大同路358号
121.444820,31.315245 , 上海市皮肤病医院 , 保德路1278号
121.43183,31.214361 , 上海电力医院 , 延安西路937号
121.411437,31.216622 , 上海九龙男子医院 , 中山西路333号
121.444644,31.208937 , 上海博爱医院(淮海中路) , 淮海中路1590号
121.21991,31.024447 , 松江区妇幼保健院 , 西林北路1010号
121.387948,31.192648 , 武警上海市总队医院 , 虹许路831号
121.48424,31.261122 , 上海市第一人民医院分院 , 四川北路1878号
121.513697,31.204532 , 上海南浦妇科医院 , 浦东南路2250号
121.245925,31.275352 , 上海曹安医院 , 曹安公路4312号
121.484515,31.211873 , 上海阿波罗男子医院 , 陆家浜路1283号
121.461663,31.254203 , 上海市静安区闸北中心医院 , 中华新路619号
121.385542,31.26084 , 上海市普陀区利群医院 , 桃浦路910号
121.472501,31.218646 , 瑞金医院卢湾分院 , 重庆南路149号(近南昌路)
121.407247,31.197926 , 上海市血液中心 , 虹桥路1187-1191号
121.442119,31.090009 , 同康医院 , 双柏路888号
121.530880,31.239522 , 上海华美医疗美容医院 , 源深路155号1-4层
121.398022,31.256189 , 上海宏康医院 , 大渡河路1933号
121.322379,31.291595 , 上海市嘉定区南翔医院 , 南翔镇众仁路495号
121.368832,31.207691 , 上海西郊骨科医院 , 剑河路595号
121.393318,31.140610 , 闵行区妇幼保健院 , 顾戴路805号
121.550728,31.190362 , 上海安达医院 , 沪南路468号(近地铁7号线芳华路站)
121.473734,31.198565 , 黄浦区东南医院 , 瞿溪路1100号(近鲁班路)
121.116006,31.150083 , 青浦区中医医院 , 青安路95号(近青浦一中)
121.337454,30.727580 , 上海建国医院 , 石化卫清西路755号
121.16127,31.295777 , 嘉定区安亭医院 , 昌吉路204号
121.137486,31.155458 , 复旦大学附属中山医院青浦分院 , 公园东路1158号
121.442923,31.156646 , 上海沪申五官科医院 , 石龙路269号
121.470698,31.290781 , 上海天伦医院 , 凉城路545-555号
121.427913,31.200463 , 中国人民解放军第四五五医院 , 淮海西路338号
121.453615,31.218511 , 上海育宝医院 , 长乐路666号邮电医院2号楼
121.328579,30.757035 , 复旦大学附属金山医院 , 龙航路1508室(近卫零北路)
121.571173,31.264833 , 上海江东医院 , 金桥路300号
121.511315,31.257465 , 上海市中西医结合医院 , 保定路230号
121.537447,31.321064 , 上海市杨浦区市东医院 , 市光路999
121.44359,31.308207 , 上海市北医院 , 闻喜路1152号(近曲沃路)
121.508417,31.146573 , 上海徐浦中医医院 , 上南路4091号
121.116006,31.150083 , 青浦区中医医院 , 青安路95号(近青浦一中)
121.337454,30.727580 , 上海建国医院 , 石化卫清西路755号
121.466401,31.210370 , 上海交通大学医学院附属瑞金医院门诊部 , 瑞金二路197号
121.471494,31.259409 , 上海市中医医院中医针灸科 , 芷江中路274号上海市中医医院
121.16127,31.295777 , 嘉定区安亭医院 , 昌吉路204号
121.137486,31.155458 , 复旦大学附属中山医院青浦分院 , 公园东路1158号
121.442923,31.156646 , 上海沪申五官科医院 , 石龙路269号
121.470698,31.290781 , 上海天伦医院 , 凉城路545-555号
121.427913,31.200463 , 中国人民解放军第四五五医院 , 淮海西路338号
121.453615,31.218511 , 上海育宝医院 , 长乐路666号邮电医院2号楼
121.328579,30.757035 , 复旦大学附属金山医院 , 龙航路1508室(近卫零北路)
121.571173,31.264833 , 上海江东医院 , 金桥路300号
121.511315,31.257465 , 上海市中西医结合医院 , 保定路230号
121.537447,31.321064 , 上海市杨浦区市东医院 , 市光路999
121.44359,31.308207 , 上海市北医院 , 闻喜路1152号(近曲沃路)
121.508417,31.146573 , 上海徐浦中医医院 , 上南路4091号
121.417829,31.193411 , 上海市疾病预防控制中心 , 中山西路1380号
121.272917,31.235490 , 上海华泰医院 , 华漕镇纪翟路1688号(纪王学校对面)
121.763228,31.041678 , 上海长安妇科医院 , 惠南镇南团公路8号(城南路交叉口)
121.522564,31.227819 , 美年大健康体检(东方路分院店) , 崂山路328号长航医院内
121.512608,31.148027 , 东方医院南院 , 云台路1800号
121.695714,31.180425 , 浦东新区中医医院 , 绣川路340号
121.407499,31.00568 , 复旦大学附属上海市第五人民医院 , 瑞丽路128号
121.420663,31.189357 , 上海万众医院 , 吴中路2-1号
121.449501,31.188010 , 上海中医药大学附属龙华医院门诊 , 宛平南路725号上海中医药大学附属龙华医院
121.486352,31.250454 , 上海都市妇科医院 , 海宁路339号
121.432476,31.209323 , 中国人民解放军第八五医院 , 华山路1328号
121.471501,31.259324 , 上海市中医特色专科中医失眠症专科 , 芷江中路274号
121.477814,31.408556 , 上海第九人民医院北部 , 漠河路280号
121.401169,31.198153 , 民航上海医院 , 红宝石路398号
121.522051,31.227835 , 上海长航医院 , 崂山路523号
121.480376,31.307044 , 上海市虹口区江湾医院 , 场中路22号
121.471445,31.259511 , 上海市中医医院门诊 , 芷江中路274号上海市中医医院内
121.386846,31.269449 , 上海九洲医院男科 , 真南路685号(近李子园站)
121.426771,31.213208 , 上海市皮肤病医院(长宁区门诊部) , 武夷路196-200号
121.375255,31.108238 , 复旦大学附属闵行医院 , 莘松路170号
121.452812,31.271208 , 同济大学附属口腔医院 , 延长中路399号
121.45624,31.220283 , 上海市第一妇婴保健院 , 长乐路536号
121.225615,31.041351 , 上海市第一人民医院急诊 , 新松江路650号上海市第一人民医院内
121.407324,31.248104 , 上海普陀区中医医院 , 曹杨路1261号
121.483471,31.212127 , 复旦大学附属妇产科医院门诊部 , 大林路358号
121.361595,31.204094 , 上海南山医院 , 去新泾路118号
121.453673,31.214995 , 上海交通大学医学院附属瑞金医院远洋分院 , 淮海中路1174-1号(近地铁1号线常熟路站)
121.50192,31.30227 , 上海市肺科医院 , 政民路507号
121.314514,30.883902 , 金山区亭林医院 , 亭林镇寺平北路80号
121.498152,31.158615 , 上海明珠医院 , 上南路3300号
121.417524,31.215709 , 上海新视界眼科医院 , 汇川路18号
121.283271,31.032350 , 东开医院 , 锦昔路180弄138号
121.409364,31.176525 , 上海禾新医院 , 钦江路102号
121.595893,31.239704 , 复旦大学附属华山医院东院国际部 , 红枫路525号
121.498962,31.165625 , 上海杨思医院 , 杨新东路28号
121.434238,31.220602 , 同仁医院(愚园路院) , 愚园路786号
121.458165,31.197661 , 美年大健康(徐汇总院) , 小木桥路251号天亿大厦1-3层
121.400123,31.158027 , 上海古美医院 , 古美路1388号
121.477708,31.229074 , 上海市红光医院 , 西藏中路25号附近
121.234663,31.377125 , 上海嘉华医院 , 嘉定镇清河路450号
121.467635,31.041852 , 闵行区吴泾医院 , 龙吴路5559号
121.426698,31.189193 , 老百姓大药房(徐汇店) , 徐虹北路3号(近凯旋路)
121.586533,31.340609 , 上海新侨医院 , 外高桥季景路9号(近保税区三号门)
121.376183,31.208317 , 上海和睦家医院 , 仙霞路1139
121.455288,31.211709 , 上海邮电医院(南部) , 复兴中路1315号
121.489277,31.25336 , 上海市第一人民医院北院 , 武进路85号
121.453976,31.271784 , 上海市第十人民医院住院部 , 延长中路301号上海市第十人民医院内
121.534437,31.258468 , 复旦大学附属妇产科医院 , 沈阳路128号
121.422146,31.189955 , 上海伽玛医院 , 吴中东路518号
121.472214,31.207519 , 上海泰坤堂中医医院 , 斜徐路553号(靠近鲁班路丽园路)
121.450139,31.192902 , 上海计生所医院 , 斜土路2120号
121.522361,31.206991 , 上海交通大学医学院附属仁济医院 , 浦建路160号
121.484615,31.284798 , 上海建工医院 , 中山北一路666号(中山北二路口)
121.115207,31.159864 , 上海青城医院 , 盈港路468号(世纪华联斜对面)
121.494477,31.21632 , 上海市黄浦区中西医结合医院 , 黄家路163号(近跨龙路)
121.484512,31.174395 , 上海市第一妇婴保健院浦东分院 , 耀华路391号
121.478156,31.233102 , 外滩街道社区卫生服务中心金陵分中心 , 广西北路230-1号
121.412805,31.195769 , 上海爱尔眼科医院 , 虹桥路1286号
121.434621,31.132742 , 大华医院 , 老沪闵路901-903号
121.369036,31.251031 , 沪西医院(装修中) , 曹安公路1583号
121.488706,31.233806 , 黄浦区中心医院门诊部 , 广东路128号
121.530645,31.282375 , 上海市杨浦区控江医院 , 双阳路480号
121.466727,31.215526 , 香山中医医院 , 复兴中路528号
121.229918,31.005838 , 上海博大医院 , 阔街55号(人民南路良友商厦苏宁电器后面)
121.441547,31.218444 , 复旦大学附属华东医院 , 延安西路221号
121.472132,31.258976 , 上海市中医医院8 , 天通庵路191
121.471214,31.258902 , 上海市中医医院6 , 天通庵路191号
121.760298,31.049273 , 浦东新区妇幼保健所(人民东路店) , 惠南镇人民东路3030号
121.511777,31.257032 , 上海航道医院 , 长阳路265号(保定路长阳路)
121.500911,31.280444 , 同济大学附属同济医院分院 , 赤峰路40号
121.479211,31.302298 , 海江医院 , 池沟路80号
121.440196,31.218737 , 复旦大学附属华东医院门诊部 , 延安西路321号
121.118585,31.14881 , 上海玛丽医院 , 公园路380号
121.454707,31.273782 , 上海市静安区妇幼保健所 , 共和新路1873弄4号(近大宁路)
121.422761,30.998633 , 上海沪闵医院 , 建设路40号
121.448825,31.235221 , 上海市眼科医院 , 陕西北路805号
121.484078,31.406193 , 宝山区中西医结合医院 , 友谊路181号
121.493154,31.287598 , 上海和平眼科医院 , 伊敏河路61号
121.411509,31.216135 , 上海天大医疗美容医院 , 中山西路339号
121.471167,31.259083 , 上海市中医医院肝科门诊 , 芷江中路274号1层
121.471167,31.259083 , 上海市中医医院肝科病房 , 芷江中路274号3层
121.453476,31.199004 , 上海中山医院整形外科 , 医学院路111复旦大学附属中山医院上海中山医院
121.317192,31.061989 , 新桥镇社区卫生服务中心(新南街) , 新桥镇新南街268号
121.451851,31.247014 , 玫瑰医疗美容医院 , 长安路1138号中房华东大厦1-3层
121.400440,31.210500 , 上海普瑞眼科医院 , 古北路436号
121.393304,31.140354 , 复旦大学附属儿科医院康复科 , 万源路399号闵行区妇幼保健院3层
121.381476,31.184313 , 第一医药(虹中店) , 虹中路438-440号
121.484854,31.219775 , 黄浦区妇幼保健所 , 中华路1525号4楼(近复兴东路)
121.488998,31.289059 , 上海中医药大学附属岳阳中西医结合医院 , 甘河路110号
121.466904,31.212267 , 上海交通大学医学院附属瑞金医院-泌尿外科 , 瑞金二路197号6号楼6层
121.425206,31.183333 , 美康口腔 , 中山西路1868号(近宜山路)
121.155710,31.298138 , 陈其明口腔诊所 , 安亭镇阜康西路273号
121.276138,31.167750 , 京汇医院 , 京华路59号4层
121.46497,31.243669 , 上海市北站医院 , 南星路29号
121.466519,31.230062 , 上海市化工职业病防治院 , 成都北路369号
121.529072,31.186132 , 上海申东医院 , 严桥路306号
121.538715,31.257250 , 杨浦区中医医院 , 眉州路34号
121.524504,31.207292 , 上海交通大学医学院附属仁济医院东部(门诊部) , 东方路1630号
121.641719,30.91053 , 上海市奉贤区奉城医院 , 川南奉公路9983号
121.579423,31.275880 , 老百姓大药房(五莲路店) , 五莲路127号(莱阳路浦东大道间)
121.105665,31.161282 , 上海同德医院 , 盈港路1006号
121.491063,31.278632 , 曲阳医院 , 玉田路333号
121.613572,31.263242 , 上海市浦东新区金桥社区卫生服务中心 , 佳林路1028号
121.496201,31.378053 , 上海市第一人民医院(宝山分院) , 牡丹江路216号
121.479550,31.212514 , 上海药房(顺昌中药店) , 顺昌路525-257号
121.478633,31.222849 , 石氏伤科 , 普安路185号近曙光大厦
121.350734,31.413363 , 罗店医院 , 罗溪路121号
121.465891,31.225616 , 第九人民医院大沽路门诊部 , 大沽路388-1号
121.679142,31.260963 , 上海尚德医院 , 川沙路1295号(近唐镇地铁站)
121.483122,31.225671 , 益丰大药房(人民路店) , 人民路905号
121.435420,31.237915 , 长寿医院 , 长寿路505弄3号
121.485253,31.235749 , 雷允上(河南中路店) , 河南中路301号(汉口路河南中路)
121.454189,31.197006 , 上海逸仙医院 , 枫林路180号中山医院内
121.422133,31.176730 , 上海市医疗急救中心 , 宜山路636号
121.406942,31.107829 , 华东医院-闵行门诊部 , 延安西路221号(总院)上海闵行区春申路2869号(闵行门诊部)上海市江西中路187号
121.428439,31.197469 , 华氏大药房(番禺路店) , 番禺路858-1号
121.425129,31.245169 , 老百姓大药房(中山北路店) , 中山北路2399号
121.452696,31.272123 , 上海市第十人民医院6 , 商场南路与商场西路交叉口东南150米
121.467877,30.91362 , 上海市奉贤区古华医院 , 南奉公路9220号
121.433012,31.212318 , 华山东方乳房专科医院 , 江苏路796号(近华山路)
121.559029,31.256758 , 上海申诚医院 , 浦东大道2516
121.484894,31.239177 , 上海市黄浦区中医医院 , 宁波路109号
121.504442,31.210219 , 上海市第二人民医院(多稼路) , 多稼路1号
121.438621,31.196175 , 上海交通大学医学院附属国际和平妇幼保健院 , 衡山路910
121.429095,31.200017 , 港华医院 , 淮海西路282号(近番禺路)
121.422990,31.278161 , 华氏大药房(大华分店) , 华灵路760号(华灵公园)
121.478837,31.206642 , 上海市黄浦区妇幼保健院 , 丽园路712-1号
121.387806,31.177223 , 华氏大药房(吴中店) , 虹桥镇吴中路1053号
121.448062,31.187294 , 上海市精神卫生中心(宛平南路) , 总院:上海市徐汇区宛平南路600号,分院:上海市闵行区沪闵路3210号
121.607161,31.127925 , 上海惠元医院 , 秀浦路2500弄4号
121.459476,31.241844 , 上海伊莱美医疗美容医院 , 梅园路88号
121.486172,31.302923 , 益丰大药房(逸仙路店) , 逸仙路793号(近万安路)
121.458460,30.913414 , 人和堂国药(南中药店) , 南桥镇南中路106号
121.361777,31.208609 , 上海神州医院 , 仙霞西路601号
121.486124,31.344297 , 上海市宝山区一钢医院 , 长江路860弄111号
121.434588,31.166368 , 解放军八五分院口腔专科 , 沪闵路9585号
121.576368,31.116361 , 上海康沈医院 , 周浦镇康沈路1624-1628号
121.432906,31.230011 , 上海市静安区妇幼保健所 , 康定路1297号(近武宁南路)
121.448178,31.230172 , 上海市儿童医院10号楼 , 新闸路1521号附近
121.448158,31.229933 , 上海市儿童医院7号楼 , 新闸路1531号附近
121.467305,31.232764 , 上海长征医院-就诊部 , 城都北路440号(凤阳路415号)
121.467267,31.232851 , 上海长征医院康复中心 , 凤阳路415号
121.467227,31.232752 , 上海长征医院-皮肤科 , 凤阳路415号
121.444639,31.217158 , 华山医院体检部 , 华山路433号
121.573002,31.225845 , 上海瑞东医院(瑞金医院浦东分院) , 锦绣东路120号(近罗山路)
121.351904,31.255994 , 上海安国医院 , 曹安公路1991号
121.443046,31.216620 , 华山国际医疗中心 , 长乐路1068号复旦大学附属华山医院
121.404067,31.299688 , 华氏大药房(南大分店) , 大场镇南大路120号
121.481979,31.227890 , 群力中医门诊部 , 金陵东路396号1-2层
121.471042,31.200649 , 华氏大药房(打浦路店) , 打浦路250号(近斜土路)
121.388699,31.320070 , 上海大学校医院 , 大场镇上大路99号
121.446724,31.058104 , 上海振国医院 , 虹梅南路4855号
121.136676,31.157120 , 青浦区妇幼保健所 , 华科路550弄2号楼
121.498582,31.081701 , 上海交通大学医学院附属仁济医院(南院) , 浦江镇江月路2000号
121.448658,31.234935 , 上海市第一人民医院眼科 , 陕西北路805号
121.393206,31.101177 , 华氏大药房(腾冲路店) , 腾冲路382-386号
121.449148,31.255257 , 华氏大药房(平江分店) , 中华新路1164号(近交通西路)
121.483350,31.311367 , 上海蓝鹰医院 , 三门路726号
121.442195,31.240293 , 上海普陀区妇女儿童保健所 , 西康路1000号冠龙大厦
121.484396,31.215436 , 瑞视眼科(建国新路) , 西藏南路758-2金开利广场2-3层
121.460941,31.229268 , 上海市公惠医院 , 石门一路315弄之1-33号
121.482092,31.227906 , 群力草药店 , 金陵东路396号(金陵东路永寿路)
121.415908,31.176025 , 华氏大药房(宜山路店) , 桂林路509号A(近宜山路)
121.467363,31.232663 , 上海长征医院-脱发预约 , 凤阳路415号
121.478185,31.199826 , 上海药房(青峰中药店) , 瞿溪路933号
121.480895,31.207159 , 上海药房(国光中药店) , 丽园路564-568号
121.454611,31.259614 , 老百姓大药房(普善路店) , 普善路350-352号
121.405824,31.214749 , 龙华中医集团天山中医医院 , 娄山关路868号
121.453679,31.272958 , 上海市第十人民医院8 , 共和新路1820号附近
121.594739,31.264788 , 公利医院(金桥门诊部) , 荷泽路582号
121.488297,31.289107 , 岳阳医院-妇科 , 甘河路110号岳阳医院7号楼3楼
121.432434,31.412424 , 上海中冶医院 , 春雷路456号
121.400712,31.160934 , 上海康贝佳口腔门诊部 , 漕宝路1050号(近虹梅路)
121.450369,31.210174 , 复旦大学附属眼耳鼻喉科医院宝庆路分部 , 宝庆路19号
121.450555,31.257611 , 北站医院沪太路分部 , 沪太路565-567号
121.494106,31.174944 , 上海中医药大学附属龙华医院浦东分院 , 上南路1000弄上钢二村45号
121.454667,31.231467 , 瑞慈医疗(凯迪克大厦北) , 江宁路212号凯迪克大厦1-2楼(近北京西路)
121.590235,31.27224 , 上海开元骨科医院 , 荷泽路88号(近五莲路)
121.432501,31.209032 , 上海解放军八五医院-骨科中心 , 华山路1328号
121.352553,31.149448 , 上海一美整形外科医院 , 七莘路2815号1层
121.482764,31.211676 , 上海集爱遗传与不育诊疗中心 , 方斜路588号(近陆家浜路)
121.451946,30.902815 , 惠爱口腔 , 环城南路1048号
121.455093,31.271432 , 上海市第十人民医院口腔 , 延长中路299号(近共和新路)
121.369451,31.233036 , 长征社区卫生服务中心 , 千阳路209号(近大渡河路)
121.388187,31.133861 , 闵行区牙病防治所(龙茗路) , 龙茗路668号(近古美西路)
121.444082,31.223475 , 华氏大药房(静安店) , 愚园路232号(近愚园支路)
121.443089,31.216364 , 复旦大学附属华山医院门诊楼 , 乌鲁木齐中路12号
121.459727,31.333703 , 华氏大药房(沪北分店) , 虎林路231-4号
121.528427,31.268622 , 杨浦区妇幼保健院所 , 长阳路1389弄75号
121.439781,31.140303 , 老百姓大药房(龙川北路店) , 龙川北路149-2号
121.407989,31.197741 , 艺星医疗美容医院 , 虹桥路1165号
121.48474,31.174475 , 复旦大学附属眼耳鼻喉科医院(浦东分院) , 耀华路389号
121.524852,31.143724 , 华氏大药房(三林分店) , 安盛街197号
121.503993,31.258326 , 衡山虹妇幼医院 , 舟山路445号(近周家嘴路)
121.314340,30.884394 , 恒德大药房(寺平药店) , 亭林镇寺平北路82号
121.486875,31.199813 , 黄浦区传染病医院 , 铁道路135号
121.436683,31.258854 , 平民大药房(洛川路店) , 洛川路301、305号
121.388488,31.133765 , 古美社区卫生服务中心 , 龙茗路668号(古美西路)
121.471142,31.265501 , 益丰大药房(中山北路店) , 中山北路152-154号101、102室
121.482671,31.206436 , 上海肛泰医院工会委员会 , 斜土路105号
121.598013,31.277211 , 浦兴地段医院 , 归昌路250号(归昌路五莲路)
121.527578,31.234954 , 益丰大药房(商城路店) , 商城路1149号1层门面
121.253912,31.379510 , 华氏大药房(嘉定分店) , 镇沙霞路83号乙
121.464127,31.263862 , 上海长征医院诊疗分部 , 和田路64号
121.408010,31.005115 , 复旦大学附属肿瘤医院闵行分院 , 瑞丽路106号
121.561358,31.227012 , 联洋社区卫生服务中心 , 紫槐路120号(近迎春路)
121.592823,31.185841 , 上海中医药大学附属曙光医院肠道科 , 张衡路528号
121.898899,30.878344 , 上海海事大学医院 , 海港大道1550号
121.545045,31.272968 , 上海市杨浦区中心医院分院 , 河间路1015号
121.226068,31.040609 , 上海交通大学附属第一人民医院(南院) , 新松江路650号
121.557917,31.250528 , 浦东新区中医医院罗山分院 , 万德路49号(近德平路菜场)
121.50676,31.211941 , 上海市强生职工医院 , 外马路984号
121.488958,31.288764 , 上海中医药大学岳阳医院 , 甘河路110号
121.442894,31.264821 , 华氏大药房(西部延长店) , 延长西路38-1号
121.137535,31.154667 , 新青浦中心医院 , 青浦镇公园东路1158号
121.489297,31.311294 , 安泰医院 , 三门路550号
121.539252,31.271750 , 华齿口腔(长阳路) , 长阳路1947-1949号
121.418678,31.236627 , 瑞视眼科曹阳门诊部 , 白玉路7号
121.551191,31.232547 , 上海交通大学医学院附属仁济医院北院 , 灵山路845号
121.518520,31.274053 , 上海交通大学医学院附属新华医院康复医学科 , 控江路1669
121.373694,31.346525 , 复旦大学附属华山医院北院 , 镜泊湖路518号
121.440067,31.218699 , 复旦大学附属华东医院住院部 , 延安西路221号复旦大学附属华东医院内
121.399024,31.61665 , 上海交通大学医学院附属新华医院崇明分院 , 崇明南门路25号
121.407662,31.006013 , 上海道培医院 , 瑞丽路128号
121.598011,31.277213 , 浦兴社区卫生服务中心 , 归昌路250号3楼
121.479615,31.213509 , 顺昌医院 , 建国东路80号
121.438089,31.230559 , 上海市静安区老年医院 , 康定路995号
121.433922,31.151787 , 华氏大药房(石龙路分店) , 石龙路681-683号
121.443856,31.215564 , 复旦大学附属华山医院肝病门诊 , 长乐路1040号
121.412373,31.190263 , 尊然医院 , 张虹路123号
121.551828,31.232813 , 上海浦东慈善医院 , 灵山路885号
121.488949,31.288634 , 岳阳医院病房B楼 , 甘河路110号岳阳医院内
121.433641,31.206106 , 新华街道社区卫生服务中心 , 华山路1467号
121.470741,31.234013 , 第一医药(人民广场店) , 凤阳路272号
121.464243,31.243703 , 华氏大药房(北区新健药店) , 大统路185号(大统路新民支路)
121.522766,31.205712 , 上海交通大学医学院附属上海儿童医学中心 , 东方路1678号
121.444476,31.121292 , 徐汇区华泾地段医院 , 华泾镇建华路180号
121.455038,31.237381 , 上海申康医院发展中心 , 康定路2号康定花园
121.406047,31.214701 , 长宁区疾病预防控制中心 , 云雾山路39号7-10层
121.546514,31.241903 , 上海市浦东新区公利医院(金淙苑东南) , 苗圃路219号
121.526867,31.237898 , 上海明德五官科医院 , 乳山路235弄25号
121.452323,31.111831 , 华氏大药房(华展路药房) , 华展路87号
121.527658,31.324978 , 杨浦区中心医院中原分院 , 开鲁路500号(近世界路)
121.441050,31.219033 , 复旦大学附属华东医院特需医疗部 , 延安西路223号
121.750250,31.143204 , 华氏大药房(航城五路店) , 航城五路292号(航城五路施湾三路)
121.478325,31.299919 , 上海东华医院 , 奎照路405号
121.626381,31.197230 , 浦东新区张江社区卫生服务中心 , 益江路458号(近张衡公园)
121.443329,31.215615 , 复旦大学附属华山医院6号楼 , 乌鲁木齐中路12号
121.392729,31.179391 , 虹桥社区卫生服务中心 , 虹桥镇吴中路829号
121.374222,31.191864 , 上海申德医院 , 虹桥路2281号(近剑河路)
121.456498,31.316455 , 上海盛德护理院 , 保德路545号
121.507556,31.200157 , 童涵春堂(南码头店) , 南码头路141号
121.387084,31.226951 , 上海市儿童医院急救 , 泸定路355号
121.399681,31.198092 , 康联医院 , 红宝石路500号东银中心B楼
121.309098,31.014007 , 上海顺源药房(车墩分店) , 北松公路4977-4979号
121.454682,31.271325 , 上海市第十人民医院发热门诊 , 延长中路288号
121.426945,31.158908 , 上海市徐汇区妇幼保健所 , 柳州路118号
121.400958,31.197607 , 上海天坛普华医院 , 红宝石路388号
121.816973,30.970902 , 万祥医院 , 万祥镇万和路185号
121.467412,31.231740 , 上海长征医院门诊部 , 凤阳路415号上海长征医院内
121.454517,30.912315 , 南桥地段医院 , 南桥镇南中路260号
121.462395,31.225093 , 上海市中医医院门诊部 , 石门一路67弄1乙上海市中医门诊部4号楼4层
121.478032,30.918305 , 奉贤区皮肤病防诊所 , 解放东路840号2层
121.485563,31.202811 , 上海交通大学医学院附属第九人民医院南院门诊部 , 制造局路639号上海交通大学医学院附属第九人民医院南院内
121.522374,31.275749 , 益丰大药房(控江路一店) , 控江路1505弄-1-71号
121.421905,31.218756 , 华氏大药房(中山公园店) , 愚园路1435号(定西路愚园路)
121.570808,31.241457 , 第一医药连锁(灵山药店) , 灵山路1798、1802号
121.435701,31.198357 , 上海交通大学徐汇校区校医院 , 华山路1954号上海交通大学徐汇校区
121.712768,31.201279 , 上海市浦东新区传染病医院 , 华夏东路3018弄46号
121.465827,31.286809 , 上海康平医院(广粤路) , 广粤路281号甲
121.387326,31.208658 , 东方丽人医疗美容 , 安龙路835号
121.449098,31.187892 , 同济大学医学院教学医院 , 宛平南路600号
121.542880,31.242717 , 立志中药店(栖山路店) , 栖山路87附近
121.461455,31.235268 , 石门二路街道社区卫生服务中心 , 山海关路456号
121.513208,31.237824 , 上海东方医院口腔科 , 即墨路150号
121.487078,31.206831 , 黄浦区半淞园街道社区卫生服务中心 , 西藏南路1350号
121.450401,31.230749 , 上海市静安区中心医院-雷允上 , 西康路266-2号
121.438305,31.196075 , 中国福利会国际和平妇幼保健院住院部2号楼 , 华山路1961号中国福利会国际和平妇幼保健院内
121.453216,31.208902 , 上海市红十字眼耳鼻喉科医院 , 汾阳路83号
121.757812,31.115492 , 祝桥镇光明医院 , 祝桥镇川南奉公路5009号
121.577884,31.350450 , 高桥社区卫生服务中心 , 欧高公路128号
121.438489,31.196565 , 爱婴医院(衡山路) , 衡山路910号
121.531223,31.110122 , 好药师大药房(仁寿药店) , 陈行公路968号附近
121.75495,31.055671 , 浦东新区南华医院 , 惠南镇城北路71号
121.484893,31.239254 , 黄浦区中心医院中医门诊部 , 宁波路109号
121.434784,31.220812 , 同仁医院(长宁分院)5号楼 , 愚园路786号
121.442930,31.244155 , 华氏大药房(西部长寿店) , 长寿路136号(长寿路江宁路)
121.427160,31.193657 , 百达丽医疗美容 , 虹桥路616号
121.221663,31.011097 , 上海茸城医院 , 西林北路351号
121.390989,31.236143 , 雷允上(景旗药房) , 怒江北路324号
121.682596,31.258193 , 曹路社区卫生服务中心 , 曹路镇龚新路470号
121.543238,31.268227 , 杨浦区牙病防治所 , 平凉路1814号(近宁武路)
121.438774,31.214431 , 永惠华 , 华山路800弄6号丁香公寓6号楼裙楼4层
121.453042,31.272427 , 上海市第十人民医院老年科门诊 , 延长中路310号
121.471427,31.307028 , 上海中大肿瘤医院 , 场中路685弄2-8号
121.906313,30.952624 , 上海市东海老年护理医院 , 三三公路5020弄8号
121.448656,31.228845 , 上海市儿童医院2号楼 , 新闸路328号附近
121.448394,31.229360 , 上海市儿童医院5号楼 , 北京西路1400弄24号(北京西路院区)
121.448340,31.228886 , 上海市儿童医院1号楼 , 西康路259号上海市静安区中心医院
121.447861,31.229917 , 上海市儿童医院9号楼 , 新闸路1531号附近
121.447833,31.229506 , 上海市儿童医院8号楼 , 新闸路1607号附近
121.467091,31.232858 , 上海长征医院急诊部 , 成都北路440号
121.588987,31.051061 , 华泰药店连锁 , 下沙镇
121.476679,31.220790 , 瑞尔齿科(顺昌路) , 湖滨路202号企业天地商业中心2号楼2层
121.466682,31.252789 , 益丰大药房(中兴路店) , 中兴路1039号第五幢101-104室
121.441440,31.245752 , 上海市普陀区人民医院体检中心 , 江宁路1311号
121.399048,31.230245 , 华氏大药房(西部怒江店) , 怒江路213号
121.746404,31.038319 , 上海汇南门诊部 , 惠南镇南园路112号
121.452881,31.307953 , 彭浦新村街道社区卫生服务中心 , 平顺路15号
121.252281,31.006851 , 上海市松江区方塔中医医院上海曙光医院松江分院 , 中山东路39号
121.393852,31.138248 , 复旦大学附属儿科医院7 , 万源路379号7号楼
121.270736,31.176318 , 青浦区徐泾镇卫生院 , 徐民路1088
121.378826,31.096262 , 华氏大药房(沁春店) , 沁春路1052、1056
121.517381,31.186431 , 南码头社区卫生服务中心 , 浦三路696号(近高科西路)
121.426290,31.000698 , 江川社区卫生服务中心 , 沪闵路63号
121.386556,31.226756 , 上海市儿童医院 , 泸定路355号
121.452856,31.271842 , 上海市第十人民医院3 , 商场南路与商场西路交叉口东南150米
121.509087,31.261514 , 华氏大药房(东余杭路店) , 东余杭路1360号(大连路周家嘴路公交站旁)
121.430811,31.177593 , 大诚中医门诊部 , 华石路85-89号
121.423080,31.239536 , 复美大药房(武宁店) , 东新路378号(东新路与武宁路交口)
121.527301,31.234825 , 发大夫养发馆(上海总店) , 商城路1133号1幢底层3室
121.748642,31.048512 , 南汇开心人大药房 , 惠南镇人民西路249号(近城西路)
121.350873,31.137407 , 闵行区疾病预防控制中心 , 中谊路965号
121.483191,31.232068 , 慈铭体检(福建中路) , 广东路429号天赐公寓2层(广东路与福建中路路口)
121.424647,31.240956 , 上海市普陀区东新地段医院 , 东新路230弄20号
121.266459,31.383811 , 迎园社区卫生服务站 , 迎园新村八坊4
121.480785,31.306596 , 上海市虹口区江湾医院住院部 , 场中路22号上海市虹口区江湾医院内
121.610537,31.300039 , 华氏大药房(俱进路药房) , 俱进路285弄-31幢-244单元-南门
121.443972,31.216136 , 复旦大学附属华山医院0 , 乌鲁木齐中路3号附近
121.516421,31.233682 , 沃德医疗中心 , 南泉北路399号
121.459729,31.284739 , 上海彭江医院 , 彭江路51号
121.443203,31.215622 , 复旦大学附属华山医院6 , 长乐路1068号附近
121.443139,31.215661 , 复旦大学附属华山医院7 , 长乐路1068号附近
121.442672,31.215406 , 复旦大学附属华山医院8 , 长乐路1082号附近
121.598582,31.025897 , 上海南航医院 , 航头镇沪南公路5996号
121.346873,31.162412 , 复美大药房(吴中路二店) , 吴中路2748号104室
121.508689,31.197794 , 童涵春堂(浦南店) , 南码头路235号
121.457038,31.272087 , 华氏大药房(北区延康店) , 延长路231号(广延路延长路)
121.762195,31.045836 , 光明中医医院 , 东门大街339号
121.453465,31.272576 , 上海市第十人民医院2 , 延长中路310号
121.453796,31.272968 , 上海市第十人民医院9 , 共和新路1820号附近
121.352100,31.153894 , 上虹大药房(七宝店) , 青年路294-296号(近七莘路)
121.492493,31.299204 , 五角场街道社区卫生服务中心 , 纪念路100号甲
121.111549,31.150204 , 上海仁博医院 , 城中北路205号
121.364309,31.197927 , 上海国际旅行卫生保健中心 , 金浜路15号(近哈密路)
121.560208,31.258261 , 益丰大药房(浦东大道店) , 浦东大道2509-2号附近
121.407525,31.248121 , 上海市普陀区老年医院 , 曹杨路1261号(近北石路)
121.277497,30.929602 , 复美大药房(兴旺店) , 叶榭镇辕门路93号
121.457003,31.273675 , 大宁地段医院 , 广延路101号
121.516403,31.282830 , 上海明潭眼科 , 江浦路2178号
121.480891,31.265343 , 中国人民解放军第四一一医院门诊部 , 东江湾路15号中国人民解放军第四一一医院内
121.463970,31.230305 , 岳阳医院-南楼 , 青海路44号
121.481745,31.236511 , 蔡同德堂(南京路步行街) , 南京东路450号
121.499017,31.272360 , 上海美联臣医疗美容医院 , 四平路776号
121.553380,31.185480 , 北蔡社区卫生服务中心 , 莲园路271号(近沪南公路)
121.440417,31.139236 , 长桥街道社区卫生服务中心 , 龙川北路9号(龙川北路上中路)
121.488211,31.234150 , 上海市黄浦区牙病防治所 , 江西中路136弄2号
121.463862,31.230385 , 岳阳医院-北楼 , 青海路44号
121.429167,31.247339 , 益丰大药房(中山北路二店) , 中山北路2139弄22号底层裙房101
121.504918,31.209898 , 上海市第二人民医院门诊部 , 多稼路1号上海市第二人民医院内
121.665687,31.290629 , 曹路社区卫生服务中心分中心 , 顾路镇顾曹路681号(顾曹公路顾三路)
121.461301,31.235236 , 石门医院 , 山海关路456号(慈溪路山海关路)
121.402347,31.120826 , 闵行区梅陇社区卫生服务中心 , 景彩路100附近(近罗锦路)
121.543267,31.290697 , 同济大学附属杨浦医院安图分部 , 延吉东路200号
121.273316,31.242684 , 华漕社区卫生服务中心(分部)门诊部 , 纪信路国大药房附近
121.478069,31.406300 , 为民药房(盘古路) , 盘古路546号
121.66009,31.205833 , 上海市浦东新区唐镇卫生院 , 唐镇创新中路75号
121.408869,31.352379 , 顾村镇社区卫生服务中心 , 水产西路1138号
121.541172,31.204672 , 华氏大药房(由由分店) , 锦安东路112号
121.422177,31.242927 , 复美大药房(兰田店) , 中山北路2576-1号
121.467006,31.226563 , 南京西路街道社区卫生服务中心 , 成都北路165号(近威海路)
121.386559,31.283784 , 上海德济医院 , 桃浦古浪路378号
121.523389,31.322914 , 上海华佳医院 , 民京路902、918号
121.111847,31.160401 , 上海顺源药房(盈港路分店) , 盈港路582号
121.235214,31.373091 , 上海中亚医院(嘉丰路) , 沪宜公路3888号
121.467693,31.210385 , 瑞金医院制剂室 , 瑞金二路197号
121.532473,31.297976 , 华氏大药房(营口分店) , 国顺东路275号(近黄兴路)
121.529942,31.324911 , 第一医药(中原店) , 开鲁路472-2号
121.697801,31.198579 , 天狮门诊部 , 川沙路4629弄51号
121.568201,31.248211 , 上海市浦东新区疾病预防控制中心 , 张杨路3039号
121.274622,31.112036 , 泗泾镇社区卫生服务中心 , 泗泾镇江川北路108号
121.443270,31.224221 , 雷允上诵芬 , 万航渡路68号九百世纪食品城(近南京西路)
121.477219,31.267217 , 上海市虹口区精神卫生中心 , 同心路159号医务科
121.448970,31.325613 , 第一医药(通河路药房) , 一二八纪念路843-845号
121.443247,31.215973 , 复旦大学附属华山医院皮肤科 , 乌鲁木齐中路12号
121.453149,31.235349 , 复安口腔 , 江宁路428号静安体育中心4楼(武定路口)
121.466762,31.239151 , 上海诺美尔眼耳鼻喉科医院 , 新闸路329-371号(近新闸路地铁站)
121.513666,31.270989 , 江浦社区卫生服务中心 , 许昌路1482号
121.439927,31.195152 , 雷允上(汇金百货) , 肇嘉浜路1000号汇金百货B1层
121.417180,31.287513 , 大场镇社区卫生服务中心 , 汶水路1662号(近沪太路)
121.412650,31.209405 , 长宁妇幼保健院佳佳母婴保健部 , 中山西路753号
121.147836,31.306451 , 安亭镇社区卫生服务中心 , 安亭镇民丰路1200号
121.480677,31.265083 , 中国人民解放军第四一一医院 , 东江湾路15号大楼
121.313899,30.724949 , 金山卫镇社区卫生服务中心 , 金山卫镇西静路367号
121.393304,31.140354 , 上海市闵行区中心医院古美分院 , 梅陇镇顾戴路805号(近万源路)
121.430703,31.266354 , 上海市同济医院急诊 , 新村路389号上海市同济医院内
121.396736,31.196117 , 格林口腔(荣华东道) , 荣华东道96号(近古北路华一银行)
121.384015,31.131127 , 复美大药房(平阳店) , 古美西路966号(古美西路虹莘路)
121.488799,31.288781 , 上海中医药大学岳阳医院医技楼 , 甘河路110号岳阳医院5号楼
121.452616,31.278068 , 华氏大药房(北区延新药店) , 共和新路2303号(共和新路汶水路)
121.382308,31.109753 , 雷允上(久和药店) , 莘建东路444-1号
121.420123,31.235902 , 华氏大药房(西部曹杨店) , 曹杨路413号
121.593537,31.186183 , 上海中医药大学附属曙光医院住院部 , 张衡路528号上海中医药大学附属曙光医院内
121.470943,30.910410 , 人和堂国药(江海药店) , 南桥环城东路1553-1555号
121.438111,31.230767 , 上海市第四康复医院 , 康定路995号
121.400883,31.132264 , 华氏大药房(百联南方购物中心) , 沪闵路7388号百联南方购物中心F1层
121.486493,31.202036 , 上海九院美容整形外科 , 制造局路635号
121.442406,31.217861 , 复旦大学附属华东医院药库 , 乌鲁木齐北路与华山路交叉口西北200米
121.527104,31.237661 , 陆家嘴社区卫生服务中心(乳山路) , 乳山路235弄1号
121.401946,31.138093 , 雷允上(莲谊药店) , 莲花路199号
121.236550,31.011166 , 上海谷阳医院 , 谷阳北路46号
121.457243,31.220608 , 上海市妇女保健所 , 陕西南路122号宣教大楼
121.135679,31.157172 , 青浦区疾病预防控制中心 , 华科路550弄8号楼
121.366047,31.196431 , 一〇八医院 , 哈密路1713号(近虹桥路)
121.418978,31.137285 , 雷允上(凌云药店) , 凌云路391号
121.347835,31.163005 , 上海市中潭医院中医门诊部 , 吴中路2728号
121.526426,31.210207 , 养和堂药业(东方路店) , 东方路1530号
121.498994,31.139742 , 三林社区卫生服务中心 , 三林路375
121.523629,31.205893 , 上海儿童医学中心住院部 , 东方路1678号上海交通大学医学院上海儿童医学中心内
121.497657,31.374035 , 吴淞街道社区卫生服务中心淞滨路分中心 , 淞滨路120号(近吴淞码头)
121.413333,30.793392 , 雷允上(百兴大药房店) , 漕廊公路330号
121.466125,31.209541 , 上海市中医文献馆中医门诊部 , 瑞金二路156号(近瑞金医院)
121.508804,31.239700 , 上海快验保门诊 , 浦东南路256号华夏银行大厦102室
121.466662,31.227043 , 科瓦齿科 , 成都北路199号恒利国际大厦11层
121.533798,31.312104 , 上海市杨浦区民星地段医院 , 民星路574号(近中原路)
121.532289,31.268875 , 上海市杨浦区疾病预防控制中心 , 长阳路1565号9楼
121.021624,30.892003 , 上海市金山区中西医结合医院 , 白牛路219号(近枫杰路)
121.443689,31.215614 , 复旦大学附属华山医院5号楼 , 长乐路1040号附近
121.393305,31.140360 , 复旦大学附属儿科医院心理科 , 顾戴路805复旦大学附属儿科医院3层
121.593659,31.044800 , 航头社区卫生服务中心 , 沪南公路5395号
121.451395,31.199586 , 徐汇区牙病防治所(肇嘉浜路总所) , 肇嘉浜路685号
121.453794,31.209564 , 复旦大学附属眼耳鼻喉科医院7 , 太原路与永康路交叉口西50米
121.427743,31.199537 , 上海四四五医院腋臭科 , 淮海西路338号
121.412098,31.147762 , 老百姓大药房(江安药妆店) , 江安路219号
121.432064,31.231246 , 晓通药房 , 余姚路742-744
121.485524,31.234720 , 第一医药商店(万康药房) , 福州路254号(福州路河南中路)
121.472264,31.259099 , 上海市中医医院10号楼 , 天通庵路与宝昌路交叉口西100米
121.472100,31.259198 , 上海市中医医院9号楼 , 天通庵路与宝昌路交叉口西100米
121.457631,31.197494 , 复旦大学附属中山医院东院区15 , 小木桥路250号c座附近
121.466583,31.212944 , 瑞金医院3舍 , 永嘉路与瑞金二路交叉口东北200米
121.466172,31.212867 , 瑞金医院2舍 , 瑞金二路197号
121.366785,31.111725 , 雷允上(奕宗药店) , 莘北路398弄14号底层D室
121.371966,31.215194 , 北新泾街道社区卫生服务中心 , 渔路111号(平塘路泉口路)
121.411782,31.761395 , 长征农场职工医院 , 长征农场场部
121.509029,31.177023 , 周家渡社区卫生服务中心 , 昌里东路239号
121.696454,31.199080 , 养和堂(川沙大药店) , 川沙路4594-4596号
121.518144,31.276781 , 老百姓大药房(江浦路店) , 江浦路1534号(近本溪路)
121.405108,31.276293 , 复美大药房(武威东路店) , 武威东路316号(武威东路真金路)
121.253698,31.12 , 上海市松江区泗泾医院 , 泗通路389号
121.381774,31.110435 , 现代齿科(碧泉路) , 碧泉路116号(近轨交一号线莘庄站)
121.473429,31.224465 , 上海外服门诊部 , 金陵西路28号金陵大厦1号楼3层、2号楼1010室
121.442461,31.187752 , 山景口腔 , 天钥桥路333号腾飞广场5层503室
121.465101,31.249862 , 华氏大药房(北区万象药店) , 虬江路1469号(虬江路永兴小马路)
121.632847,31.199399 , 好邻居大药房(医保店) , 益江路135弄17号
121.442647,31.219082 , 复旦大学附属华东医院体疗楼 , 延安西路221号
121.443950,31.216089 , 复旦大学附属华山医院供应室 , 乌鲁木齐中路12号华山医院0号楼1楼
121.442278,31.218208 , 复旦大学附属华东医院配电房 , 延安西路与延安高架路交叉口东南150米
121.443694,31.215958 , 复旦大学附属华山医院放射科 , 乌鲁木齐中路12号华山医院放射科3号楼一楼
121.535347,31.168768 , 迎博社区卫生服务中心 , 三林镇新浦路297号靠近板泉路
121.439694,31.241665 , 普陀区眼病牙病防治所 , 长寿路247弄1号
121.215277,31.038470 , 复美大药房(阳光店) , 新松江路1101-1103号
121.252281,31.006853 , 上海曙光医院松江分院 , 中山东路39号
121.162695,31.300876 , 复美大药房(安亭店) , 安亭镇墨玉路394号
121.383453,31.310769 , 复美大药房(袭明店) , 上大路1326-1328号
121.202311,31.154641 , 复美大药房(镇中店) , 赵巷镇镇中路518号C01室
121.427171,31.359741 , 复美大药房(天馨店) , 水产西路292号
121.316074,31.116256 , 朱龙村中心卫生室 , 连富路275号
121.453914,31.308449 , 华氏大药房(北区前锋药店) , 闻喜路710号(场中路平顺路)
121.464108,31.229923 , 岳阳医院 , 青海路44号
121.524366,31.205657 , 健尔药房(东方路店) , 东方路1678号(近北园路)
121.617931,31.140673 , 上海亲和源医院 , 康桥镇秀沿路2999弄
121.467329,31.220420 , 上海药房(淮海店) , 淮海中路600号(兴安路雁荡路)
121.457308,31.256952 , 华氏大药房(北区总店) , 芷江西路455号(普善路芷江西路)
121.696158,31.202076 , 上海安平医院 , 川沙路4425号
121.497048,31.225342 , 童涵春堂(人民路店) , 人民路1号3楼
121.384302,31.246235 , 第一医药(百联中环购物广场) , 真光路1288号百联中环购物广场F1层B-L138
121.487399,31.201761 , 上海第九人民医院挂号处 , 瞿溪路500号
121.415925,31.208316 , 美之源整形外科医院 , 延安西路1733-1735号
121.457296,31.197803 , 复旦大学附属中山医院东院区13号楼 , 小木桥路246号附近
121.457210,31.197787 , 复旦大学附属中山医院东院区营养科 , 中山医院东院
121.456158,31.197719 , 复旦大学附属中山医院东院区19号楼 , 清真路1619号附近
121.451663,30.902841 , 惠爱医院 , 南桥镇环城南路1028号
121.288721,30.807207 , 九州通大药房(留溪药店) , 金张公路154号
121.444944,31.287998 , 上海市静安区疾病预防控制中心 , 永和路195号
121.449830,31.230943 , 华山神经外科(集团)医院静安分院 , 西康路281号
121.012465,30.850384 , 社区卫生服务 , 菖梧路西100米
121.541386,31.179985 , 华氏大药房(锦绣店) , 锦绣路3218号锦绣乐购1楼(近成山路)
121.533820,31.296536 , 五角场镇社区卫生服务中心 , 营口路760-762号
121.485073,31.202670 , 华氏大药房(汝南分店) , 制造局路600-602号
121.470869,31.227534 , 小精灵宠物医院(浦西店) , 武胜路449-451号
121.460150,31.323070 , 华氏大药房(共和分店) , 共康东路312号(共康东路阳曲路)
121.828930,30.899383 , 雷允上(泥城药房店) , 泥城镇南芦公路1882号
121.465451,31.218001 , 上海市气功研究所医疗门诊部 , 南昌路218-220号
121.381187,31.184682 , 上海松峰口腔门诊 , 虹桥镇虹中路456号
121.610419,31.280525 , 上海金高中西医结合医院 , 高行镇金高路1115号
121.486330,31.202051 , 上海交通大学医学院附属第九人民医院2号楼 , 制造局路639号
121.453750,31.208800 , 复旦大学附属眼耳鼻喉科医院9号楼 , 汾阳路83号复旦大学附属眼耳鼻喉科医院9号楼
121.736893,31.058657 , 上海市浦东医院 , 惠南镇拱为路2800号
121.432065,31.266278 , 上海同济医院同济楼住院部 , 新村路389号上海市同济医院医院内
121.120999,31.146712 , 云湖医药(城东药店) , 城中东路208号
121.464694,31.282517 , 上海华肤医院皮肤科 , 广粤路95号(近广中路)
121.443168,31.056204 , 吴泾社区卫生服务中心(三新街) , 吴泾镇北吴路448号
121.494414,31.276532 , 雷允上(鹤龄药店) , 大连西路86-2
121.473332,31.256119 , 华氏大药房(北区树新药店) , 中兴路587号(近公兴路)
121.421670,31.132377 , 凌云街道社区卫生服务中心 , 凌云路99号(近上中西路)
121.478397,31.222843 , 上海中医药大学附属曙光医院西院门诊 , 普安路185号上海中医药大学附属曙光医院西院内
121.495491,31.250849 , 复美大药房(东汉阳路店) , 东汉阳路328号(近旅顺路)
121.440670,31.257015 , 华氏大药房(西部宜川店) , 宜川路16-1号
121.403864,31.205374 , 上海瑞林诊所 , 仙霞路88号太阳广场西塔302室
121.517805,31.101025 , 上虹大药房(题桥店) , 陈行公路1949-1号
121.447127,31.173267 , 龙华街道社区卫生服务中心 , 龙华西路249号
121.477989,31.266733 , 上海医药(同心药房) , 同心路119号(同心路西江湾路)
121.369482,31.240903 , 上海德杏堂中医门诊部 , 清峪路388号2楼
121.703515,31.196134 , 养和堂药业(川沙店) , 街74号1-2层(近乔家浜路)
121.390347,31.244201 , 上海市普陀区疾病预防控制中心 , 丹巴路1628号(近梅岭北路)
121.407455,31.248140 , 上海市普陀区中医医院门诊 , 曹杨路1261号上海市普陀区中医医院内
121.458985,31.313627 , 华氏大药房(汾西分店) , 汾西路414号(近安业路)
121.481329,31.293069 , 复美大药房(新市南路店) , 新市南路569-1号
121.849044,30.878522 , 华泰药店(果园店) , 果园路145弄5号
121.485642,31.202912 , 上海交通大学医学院附属第九人民医院综合服务部 , 制造局路639号
121.455314,31.217529 , 春语华澳整形美容医疗中心 , 新乐路57号(襄阳北路口)
121.410548,31.228672 , 复美大药房(中山北路店) , 中山北路3648号
121.456552,31.196519 , 复旦大学附属中山医院东院区16号楼 , 斜土路与枫林路交叉口东北150米
121.488163,31.237864 , 北京同仁堂(四川中路店) , 四川中路328号(南京东路口)
121.448914,31.229261 , 上海市儿童医院GCP档案室 , 北京西路1316号附近
121.484125,31.284285 , 上海建工医院2号楼 , 中山北一路666号
121.238890,31.388048 , 嘉定区中心医院-感染科 , 环城路2200号嘉定区中心医院内
121.526862,31.208817 , 神华中医门诊部 , 东方路1529号丙(近兰村路)
121.397709,31.067434 , 闵行区颛桥社区卫生服务中心 , 颛桥镇颛兴路122号
121.488572,31.253141 , 上海交通大学附属第一人民医院北部急诊 , 海宁路100号上海交通大学附属第一人民医院北部内
121.392755,31.196504 , 永颜口腔 , 水城南路55号六月汇广场
121.396398,31.141529 , 复美大药房(顾戴路店) , 顾戴路655号(顾戴路万源路)
121.486509,31.241141 , 西门子助听器(上海四川中路店) , 四川中路555号(四川路北京东路口近外滩)
121.518241,31.273981 , 上海交通大学医学院附属新华医院医技楼 , 控江路1665号上海新华医院放射科
121.456699,31.196667 , 中山医院东院区-心血管病肝脏肿瘤门诊 , 斜土路1609号
121.453705,31.272924 , 上海市第十人民医院临床营养科 , 第十人民医院延长中路301号7号楼2层
121.480468,31.273172 , 上海赤峰医院(东体育会支路) , 东体育会支路41-1号
121.257142,31.384860 , 嘉定区疾病预防控制中心 , 塔城路264号
121.582789,31.240518 , 华氏大药房(碧云路店) , 碧云路633号碧云体育休闲中心1层D1-1
121.473547,30.917139 , 奉贤区疾病预防控制中心 , 解放东路931号
121.439735,31.197130 , 瑞尔齿科(徐家汇店) , 徐家汇天平路245号巾帼园2楼201室
121.575960,31.114833 , 上海知音医院 , 周浦镇年家浜路372号(万达广场向东200米)
121.412871,31.195824 , 上海爱尔眼科医院住院部 , 虹桥路1286号上海爱尔眼科医院内
121.398094,31.256014 , 上海宏康医院结石科 , 大渡河路1933号
121.298249,31.206170 , 康靓口腔(华漕店) , 老北翟路5158号(近纪翟路)
121.632465,31.304964 , 浦东新区高东社区卫生服务分中心 , 高东镇镇南路100号
121.34918,31.716305 , 崇明区庙镇人民医院 , 庙镇镇为民街24号
121.462498,31.225128 , 上海市名老中医诊疗所 , 石门一路67弄1号
121.612515,31.205358 , 养和堂药业(张江店) , 张江镇川北公路3003号(川北公路古桐路)
121.453744,31.271001 , 第十人民医院-产科 , 延长中路301号
121.522995,31.240965 , 慈铭体检(陆家嘴店) , 浦东大道637号同科公寓2层
121.724634,31.390468 , 上海兴岛医院 , 前卫支路177号
121.679988,31.267997 , 上海市浦东新区肺科医院 , 秦家港路1569号
121.471474,31.259431 , 上海中医院-脾胃病咨询室 , 芷江中路274号
121.404146,31.058509 , 上海市精神卫生中心L8 , 沪闵公路2864号附近
121.403551,31.057716 , 上海市精神卫生中心D , 沪闵公路西150米
121.404462,31.057598 , 上海市精神卫生中心L5 , 沪闵公路2882号附近
121.404328,31.057903 , 上海市精神卫生中心L7 , 沪闵公路2878号附近
121.403905,31.056585 , 上海市精神卫生中心A , 沪闵公路西200米
121.403774,31.056981 , 上海市精神卫生中心B , 沪闵公路西200米
121.405058,31.056225 , 上海市精神卫生中心5 , 沪闵公路2898号附近
121.405158,31.055667 , 上海市精神卫生中心7 , 沪闵公路2906号附近
121.405095,31.055995 , 上海市精神卫生中心6 , 沪闵公路2902号附近
121.405210,31.055470 , 上海市精神卫生中心8 , 沪闵公路2908号附近
121.478381,31.223093 , 国大曙光药房(曙光店) , 普安路185号(普安路桃源路)
121.472279,31.251681 , 上海市第十人民医院体检部 , 虬江路1057甲
121.212714,31.271005 , 复美大药房(黄渡店) , 黄渡绿苑路275号
121.491276,30.916803 , 人和堂国药(庙泾药店) , 南桥镇望园南路1658弄58号
121.453439,31.275120 , 雷允上(共和新路店) , 共和新路1945号(共和新路大寧路)
121.444393,31.208680 , 上海轻工职工医院 , 淮海中路1590弄1号
121.595228,31.239735 , 上海市浦东新区医疗急救中心 , 金桥经济技术开发区红枫路515号
121.493828,31.258683 , 垦业红十字服务站 , 通州路四一九弄9
121.423280,31.178118 , 上海市第六人民医院儿科门急诊 , 宜山路626号2楼
121.607492,31.291815 , 诚字大药房(东靖路店) , 东靖路1900弄3-6号(东靖路行泰路)
121.377240,31.098480 , 雷允上(众缘药房) , 莘庄镇莘西南路388号
121.458156,31.336770 , 泗塘社区卫生服务中心 , 虎林路439号(近长江西路)
121.439004,31.304639 , 上海海鹰医院 , 场中路2888号(近三泉路)
121.475878,31.282333 , 海军上海保障基地医院 , 水电路650-652号
121.457896,31.212872 , 上海市口腔病防治院(复兴中路) , 湖南路街道复兴中路1258号
121.424844,31.167444 , 上海晓峰口腔门诊部 , 漕宝路108号2层(柳州路口)
121.608210,31.292214 , 四季小店 , 金高路388弄41号
121.442947,31.216125 , 上海市神经外科质量控制中心 , 乌鲁木齐中路12号复旦大学附属华山医院附近
121.442947,31.216125 , 上海市临床药事质量控制中心 , 乌鲁木齐中路12号复旦大学附属华山医院附近
121.417833,31.010008 , 上海诚康大药房(安宁店) , 安宁路32号
121.123197,31.146261 , 东方社区卫生服务站(保安路) , 城中东路243号
121.538057,31.261 , 上海市第一康复医院 , 杭州路349号(近宁国路)
121.534538,31.230315 , 上海市浦东新区精神卫生中心(源深路) , 源深路622-624
121.458426,31.310626 , 临汾社区卫生服务中心 , 临汾路385号(近岭南路)
121.484702,31.233076 , 仁济药房(山东中路店) , 山东中路113-115号(广东路山东中路)
121.449539,31.033647 , 华东师范大学闵行校区校医院 , 东川路500号华东师范大学闵行校区
121.389886,31.269833 , 上海天佑医院 , 真南路528号
121.440820,31.244960 , 上海市普陀区人民医院门诊 , 江宁路1291号上海市普陀区人民医院内
121.565688,31.153667 , 御康医院 , 沪南路2411弄1号
121.498742,31.081424 , 仁济医院 , 南江洲路与浦锦路交叉口东100米
121.338394,31.267075 , 上海海华医院 , 江桥镇海波路358号
121.427237,31.280919 , 芝林大药房(晋城路店) , 晋城路697号(近大华阳城世家)
121.066805,31.108283 , 沪青门诊部 , 祥凝浜路15弄1号
121.447972,31.307853 , 华氏大药房(北区阜丰药店) , 闻喜路925号(共和新路闻喜路)
121.249999,31.397996 , 菊园新区社区卫生服务中心 , 棋盘路
121.249774,31.386243 , 嘉定区牙病防治所(嘉定北大街) , 北大街79号
121.457089,31.191094 , 胞逆康(上海)新健康科技中心 , 零陵路342号汇成民聚商务楼2号楼107室
121.583235,31.275408 , 沪东社区卫生服务中心 , 莱阳路512号(近五莲路)
121.698092,31.119351 , 天狮(砖桥路) , 砖桥路69号
121.501194,31.167611 , 上海市临床检验中心 , 周家渡街道洪山路528号
121.378626,31.150506 , 上虹大药房(九星店) , 九星综合市场九星路农贸市场北外12-14号
121.498114,31.158685 , 上海明珠医院精神科 , 上南路3300号
121.353758,31.285413 , 华氏大药房(西部桃浦店) , 绿杨路249号
121.524153,31.207039 , 仁济医院-风湿病科 , 东方路1630号
121.517594,31.273475 , 上海交通大学医学院附属新华医院外科楼 , 控江路1665号
121.510425,31.257769 , 上海宏慈华氏大药房 , 保定路259号
121.447550,30.911727 , 养生堂(解放西路) , 南桥镇解放西路389号
121.440641,31.187764 , 汇丰大药房(天钥店) , 天钥桥路380弄6-3号
121.510615,31.255917 , 上海市虹口区疾病预防控制中心 , 长阳路197号虹口区公共卫生大楼
121.285250,31.156070 , 远大健康城 , 西徐联路西200米
121.518370,31.271894 , 新华医院-科教楼 , 江浦路1665号
121.485408,31.203357 , 上海交通大学医学院附属第九人民医院临床转化医学中心办公室 , 制造局路569号附近
121.336741,31.132305 , 上海朝华 , 松江九亭大街255号
121.538856,31.307665 , 上海寓医馆 , 包头路58号、62号
121.361708,31.244731 , 真新社区卫生服务中心 , 丰庄路255号
121.546007,31.269967 , 上海益丰大药房(平凉路店) , 平凉路1970-2号
121.207216,31.031321 , 方松街道社区卫生服务中心 , 文诚路805号(财务科对面)
121.653428,31.108418 , 华泰药店(瓦屑店) , 周浦镇振兴路85号
121.363222,31.234175 , 宝岛大药房(长又春店) , 长征镇同普路1459号
121.337669,30.727625 , 建国口腔诊疗 , 卫清西路759号
121.457847,31.338976 , 建工老年护理医院 , 虎林路521号
121.216311,31.315726 , 上海欣安医院 , 宝安公路4539号
121.388449,31.192557 , 上海武警总队医院神经科 , 虹许路831号(延安西路口)
121.221708,31.011168 , 上海茸城医院(整形科) , 西林北路351号
121.443155,31.216094 , 上海复旦大学附属华山医院脑瘫中心门诊部 , 乌鲁木齐中路12号
121.300211,31.310497 , 静华村社区卫生服务站 , 南翔镇陈翔路2288弄248号
121.457983,31.209618 , 汇丰大药房(襄阳店) , 襄阳南路297号
121.472899,31.222079 , 健美齿科 , 淮海中路381号中环广场办公大楼3层305
121.396816,31.232243 , 长风社区卫生服务中心(金沙江路) , 金沙江路906号(大渡河路金沙江路)
121.442947,31.216125 , 上海市职业病诊断质量控制中心 , 乌鲁木齐中路12号复旦大学附属华山医院附近
121.572947,31.247093 , 金杨社区卫生服务中心(金杨路) , 金杨路220弄41号
121.384150,31.191297 , 农垦医院 , 虹梅路3721号国际珍珠城内(近延安西路)
121.374285,31.12809 , 莘庄社区卫生服务中心 , 水清路1099号(近秀文路)
121.152721,31.301586 , 嘉园医院 , 安亭新源路941-949号(近和静路)
121.458426,31.310626 , 静安区红十字老年护理医院 , 临汾路385号
121.473692,31.214789 , 淮海中路街道社区卫生服务中心 , 淡水路285号
121.403630,31.058746 , 上海市精神卫生中心L3 , 沪闵公路西150米
121.466721,31.209757 , 中国疾病预防控制中心寄生虫病预防控制所 , 瑞金二路207号(近瑞金医院)
121.634162,30.912400 , 完美(洪城日用品商行) , 奉城镇南奉公路222号
121.458937,31.196918 , 汇丰大药房(同寿康药店) , 斜土路1598号
121.232230,31.006895 , 余天成堂(中山中路店) , 中山中路262-272号
121.448915,31.229255 , 上海市儿童医院GCP机构办公室 , 北京西路1316号附近
121.520008,31.241328 , 富民大药房(东方路店) , 陆家嘴街道东方路61号(昌邑路东方路)
121.437492,31.198596 , 汇丰大药房(广元路店) , 广元路224号(近华山路)
121.450269,31.327504 , 复美大药房(通河店) , 通河路104号
121.388782,31.192787 , 武警上海市总队医院妇科 , 虹许路831号
121.453905,31.273098 , 上海市医疗急救中心十院分站 , 共和新路与商场南路交叉口南50米
121.441258,31.231422 , 上海市静安区精神卫生中心 , 康定路834(近延平路)
121.485513,31.202574 , 上海九院特需门诊 , 制造局路639号
121.402325,31.183842 , 复美大药房(吴中店) , 吴中路541号(近虹许路)
121.336780,31.481905 , 罗泾镇社区卫生服务中心 , 罗泾镇潘沪路28号
121.369460,31.240960 , 德杏堂 , 清峪路388号(13号线祁连山南路站)
121.346284,31.164248 , 闵行区七宝镇新龙村卫生室 , 七宝镇吴宝路457号
121.450144,31.187287 , 上海中医药大学附属龙华医院特诊部 , 宛平南路725号
121.373104,30.997640 , 江川社区卫生服务中心碧江分中心 , 昆阳路520弄10号
121.413689,31.231151 , 复美大药房(清水湾店) , 中山北路3300号月星·环球港B1层
121.584188,31.124302 , 上海国龙医院 , 川周公路4128号
121.397928,31.329410 , 复美大药房(涵青店) , 涵青路378号(近经纬城市绿洲二期大门)
121.469997,31.272822 , 复旦大学附属中山医院南院 , 传染病医院免疫诊断试剂研制开发部附近
121.768415,31.043299 , 雷允上(华台药店) , 靖海路98号
121.387058,31.227310 , 病房(上海市儿童医院) , 泸定路355号F3层
121.386720,31.226758 , OR6(上海市儿童医院) , 泸定路355号F4层
121.386629,31.226771 , OR5(上海市儿童医院) , 泸定路355号F4层
121.386557,31.226967 , OR10(上海市儿童医院) , 泸定路355号F4层
121.386370,31.227193 , 套房(上海市儿童医院) , 泸定路355号F13层
121.386396,31.226976 , OR8(上海市儿童医院) , 泸定路355号F4层
121.386320,31.226961 , OR7(上海市儿童医院) , 泸定路355号F4层
121.386317,31.226850 , OR1(上海市儿童医院) , 泸定路355号F4层
121.386340,31.227113 , ECT(上海市儿童医院) , 泸定路355号F1层
121.170813,31.364981 , 嘉定区外冈镇社区卫生服务中心 , 外冈镇祁昌路355号
121.528357,31.268824 , 大桥街道社区卫生服务中心(长阳路) , 长阳路1389弄75号
121.374261,31.273269 , 复美大药房(义信店) , 桃浦镇真南路1226弄3号楼104B(康建商务广场)
121.451319,31.188086 , 上海中医药大学附属龙华医院尚庭 , 宛平南路725号
121.495711,31.143978 , 华氏大药房(长青分店) , 长清路1807-1809号
121.522393,31.217505 , 一村卫生服务站 , 南泉路1095号
121.508804,31.239700 , 上海瑞慈健康管理中心 , 浦东南路256号华夏银行大厦302-312
121.091850,31.210591 , 上海顺源药房(大盈路) , 大盈路270号
121.356902,31.257175 , 上海海鹤医院 , 曹安公路1978号(外环路口)
121.404802,31.056818 , 上海市精神卫生中心(上海市精神卫生中心5北) , 沪闵路3210号
121.458369,31.217064 , 徐汇区中心医院口腔科 , 淮海中路966号
121.344293,31.143503 , 上虹大药房(中春店) , 联明路杨家坟10号
121.614853,31.282233 , 华高社区卫生服务站 , 高行镇源华路408号
121.333393,31.131122 , 上海市第一医药商店(涞亭药房) , 九亭大街334号
121.436100,31.184548 , 汇丰大药房(光启药店) , 裕德路10号(近漕溪北路)
121.467805,30.913519 , 上海市奉贤区古华医院住院部 , 南奉公路9220号上海市奉贤区古华医院2号楼2层
121.487637,31.215847 , 童涵春堂(众华店) , 中华路1235
121.499166,31.220656 , 复美大药房(中华路店) , 中华路292号
121.501613,31.258634 , 上海益丰大药房(周家嘴路店) , 周家嘴路729号(近公平路)
121.542807,31.203172 , 上海洁皓口腔门诊部 , 东建路854、866号
121.486601,31.274324 , 上海市虹口区牙病防治所 , 欧阳路571号
121.271021,31.379468 , 上海市嘉定区迎园医院 , 墅沟路400、420号
121.273788,31.171857 , 好药师(佳胧店) , 徐泾镇京华路277号
121.616368,31.140410 , 浦东新区周浦医院康桥分院 , 康桥镇拯安路58号
121.400962,31.010966 , 红旗社区卫生服务站(碧江路) , 碧江路388号
121.398068,31.246938 , 真如镇社区卫生服务中心 , 真如西村115号(近大渡河路)
121.319667,31.131259 , 上海市松江区九亭医院 , 九新公路155号
121.413837,31.276179 , 复美大药房(真华店) , 大华三路447-2号(大华路大华三路)
121.444689,31.315772 , 上海市遵义红十字医院 , 保德路1278号皮肤病性病院
121.402989,31.212997 , 天山路街道社区卫生服务中心 , 娄山关路815弄1-23号天山四村天山四村122号
121.406722,31.238032 , 曹杨社区卫生服务中心 , 兰溪路121号(近枣阳路)
121.450102,31.187909 , 上海龙华医院(口腔科) , 宛平南路725号1楼口腔科
121.530162,31.279869 , 益丰大药房(控江路二店) , 控江路1058-1060号1层
121.556356,31.229203 , 上海市癌症康复俱乐部 , 杨高中路2795-7号联洋新社区青少年彩虹中心中途宿舍
121.487101,31.235312 , 复旦大学附属华东医院市府大厦门诊部 , 江西中路187号(新城饭店)
121.354344,31.177842 , 上海市闵行区龙柏社区卫生服务中心 , 航东路608号(航华路沪渝高速)
121.484593,31.284869 , 上海建工医院(3号楼) , 中山北二路666号2号
121.456390,31.220073 , 爱婴医院(长乐路) , 长乐路536号同济大学附属第一妇婴保健院
121.481282,31.300557 , 江湾镇街道社区卫生服务中心(新市南路) , 新市南路1227号
121.431694,31.267332 , 上海市同济医院5 , 子长路与新村路交叉口西北200米
121.430778,31.267023 , 上海市同济医院同康楼 , 新村路389号
121.493940,31.246848 , 上海金典医院 , 塘沽路29号
121.422594,31.179727 , 上海市第六人民医院住院部 , 宜山路600号上海市第六人民医院内
121.525220,31.282660 , 益丰大药房(靖宇南路店) , 靖宇南路108号(靖宇南路靖宇中路)
121.352874,31.150069 , 七宝社区卫生服务中心 , 七宝镇富强街96号七宝卫生社区服务中心
121.456008,31.318407 , 上海立志中药店(岭南路店) , 岭南路754-756
121.448301,31.229754 , 上海市儿童医院-综合楼 , 北京西路1400弄24号
121.460250,30.913194 , 上海人和堂参茸保健品有限公司 , 南桥镇立新路94弄5号
121.306474,31.437922 , 灰指甲 , 徐行镇曹王村205号
121.446228,31.187338 , 宝岛大药房(心宁店) , 零陵路620号
121.453472,31.208646 , 复旦大学附属眼耳鼻喉科医院10 , 汾阳路83-10号楼附近
121.433285,31.187278 , 泓虎口腔门诊部 , 蒲汇塘路101号沪贵苑2楼(近文定路)
121.520349,31.235028 , 雷允上(乳山路店) , 乳山路145-1号
121.507591,31.146440 , 仁济宠物医院 , 三林镇凌兆路868号
121.483178,31.255461 , 华氏大药房(新特药商店) , 四川北路1525号(近虬江路)
121.418067,31.208147 , 同仁堂药店(延安西路店) , 延安西路1672号(近凯旋路)
121.525988,31.207638 , 仁济药房(东方路店) , 东方路1630号(仁济医院东部2号楼2楼)
121.163451,30.897434 , 金山区妇幼保健所 , 朱泾镇南圩路12号(朱泾万安街南圩路)
121.486753,31.254637 , 上海民生中医门诊部 , 衡水路89弄1号101室
121.371028,31.129759 , 上虹大药房(金龙店) , 莘庄镇黎安路520号
121.386947,31.226987 , 诊室8(上海市儿童医院) , 泸定路355号F2层
121.386917,31.226989 , 诊室6(上海市儿童医院) , 泸定路355号F2层
121.582338,31.345171 , 雷允上(季景北路) , 高桥镇季景路611号
121.450917,31.187697 , 上海中医药大学附属龙华医院10 , 宛平南路725号
121.428690,31.349335 , 雷允上(共富路) , 共富路250号(共富路联泰路)
121.431615,31.266176 , 上海市同济医院2号楼 , 新村路389号
121.463931,31.230352 , 上海中医药大学附属岳阳中西医结合医院门诊部 , 青海路44号岳阳医院青海路
121.489387,31.246817 , 上海太平洋口腔医疗中心 , 武昌路269号
121.459995,31.230494 , 雷允上(南京西路店) , 南京西路876号
121.579917,31.269881 , 上海沪东造船集团职工医院 , 沪东路238号
121.405793,31.635341 , 上海长华门诊部 , 育麟桥路409-6
121.471869,31.258903 , 上海市中医医院-住院部 , 芷江中路274号上海市中医医院内
121.479491,31.262620 , 陈华口腔 , 宝山路800号
121.595078,31.187178 , 上海中医药大学附属曙光医院贵宾楼 , 张衡路528号上海中医药大学附属曙光医院
121.490807,31.227085 , 童涵春堂(旧校场路店) , 旧校场路33、41
121.566914,31.224350 , 诺亚口腔(柳杉路) , 柳杉路39-43号2楼(锦绣路口)
121.425074,31.123383 , 上虹大药房(莘朱店) , 莘朱路2105号附近
121.483881,31.284063 , 上海建工医院1号楼 , 中山北一路666号
121.509289,31.197085 , 浦南医院西院-门诊部 , 浦东南路2400号
121.505005,31.210307 , 上海市第二人民医院出入院处 , 多稼路1号附近
121.457523,31.197360 , 复旦大学附属中山医院生殖医学中心 , 斜土路1612-1620号附近
121.505368,31.209670 , 上海市第二人民医院-急诊 , 多稼路1号上海市第二人民医院内
121.437108,31.318273 , 华氏大药房(全新店) , 长临路423-425
121.225599,31.386289 , 复美大药房(红石店) , 红石路707-709号
121.494457,31.350459 , 华氏大药房(长江店) , 淞南镇长江路372号
121.386850,31.269262 , 上海九洲医院哮喘科 , 真南路685号2层
121.854020,30.875019 , 华泰药店(果园一店) , 新城镇芦潮港芦云路26号
121.435214,31.16683 , 中国人民解放军第八五医院(分院) , 沪闵路9585号
121.453299,31.197407 , 复旦大学附属中山医院办公楼 , 医学院路与平江路交叉口东南150米
121.432368,31.209543 , 解放军第八五医院住院部 , 华山路1328号解放军第八五医院内
121.560703,31.180942 , 莲安药房 , 莲安东路242-244号